ONEWEB-0080             
1 45426U 20020C   24146.60451084 -.00001977  00000+0 -56143-2 0  9996
2 45426  87.8967 170.7993 0002712  98.7720 261.3715 13.11425333204062
ONEWEB-0090             
1 45427U 20020D   24146.54516138 -.00000534  00000+0 -15421-2 0  9994
2 45427  87.8973 170.7932 0002094  89.8596 270.2771 13.11415044204034
ONEWEB-0061             
1 45428U 20020E   24146.57738507  .00000094  00000+0  22906-3 0  9990
2 45428  87.8971 170.7858 0002110  93.6102 266.5267 13.11418336203983
ONEWEB-0081             
1 45429U 20020F   24146.55872050 -.00000859  00000+0 -24597-2 0  9999
2 45429  87.8967 170.8071 0001698 107.2578 252.8736 13.11417640204095
ONEWEB-0069             
1 45430U 20020G   24146.54857400 -.00000410  00000+0 -11933-2 0  9995
2 45430  87.8969 170.7977 0002112  91.8400 268.2970 13.11404750204029
ONEWEB-0031             
1 45431U 20020H   24146.59604117  .00000560  00000+0  15452-2 0  9990
2 45431  87.8975 170.7953 0001913  87.0472 273.0875 13.11414762204016
ONEWEB-0027             
1 45432U 20020J   24146.55114980  .00000016  00000+0  79432-5 0  9998
2 45432  87.9161 155.6642 0002048  77.8202 282.3159 13.17647313207242
ONEWEB-0064             
1 45433U 20020K   24146.59433981  .00000572  00000+0  15771-2 0  9998
2 45433  87.8970 170.8053 0002286  86.7390 273.3999 13.11414530204040
